{
  "type": "FeatureCollection",
  "features": [
    {
      "type": "Feature",
      "properties": {
        "norad_id": 42989,
        "name": "SKYSAT-C9",
        "group": "resource",
        "lat": 82.57574468963512,
        "lon": 31.708896461072847,
        "alt_km": 443.1007003929908,
        "timestamp": "2025-12-17T23:38:06.520655+00:00",
        "meta_object_name": "SKYSAT-C9",
        "meta_object_id": "2017-068C",
        "meta_epoch": "2025-12-17T07:36:42.694848",
        "meta_mean_motion": 15.36166959,
        "meta_eccentricity": 0.00106058,
        "meta_inclination": 97.4187,
        "meta_ra_of_asc_node": 121.607,
        "meta_arg_of_pericenter": 73.0868,
        "meta_mean_anomaly": 287.1538,
        "meta_ephemeris_type": 0,
        "meta_classification_type": "U",
        "meta_norad_cat_id": 42989,
        "meta_element_set_no": 999,
        "meta_rev_at_epoch": 45478,
        "meta_bstar": 0.0003240205,
        "meta_mean_motion_dot": 0.00011361,
        "meta_mean_motion_ddot": 0,
        "tle_line1": "1 42989U 17068C   25351.31716082  .00011361  00000+0  32402-3 0  9993",
        "tle_line2": "2 42989  97.4187 121.6070 0010605  73.0868 287.1538 15.36166959454784"
      },
      "geometry": {
        "type": "Point",
        "coordinates": [
          31.708896461072847,
          82.57574468963512
        ]
      }
    },
    {
      "type": "Feature",
      "properties": {
        "norad_id": 42990,
        "name": "SKYSAT-C8",
        "group": "resource",
        "lat": 1.547749891632126,
        "lon": 121.80562090429838,
        "alt_km": 468.9851311707598,
        "timestamp": "2025-12-17T23:38:06.520665+00:00",
        "meta_object_name": "SKYSAT-C8",
        "meta_object_id": "2017-068D",
        "meta_epoch": "2025-12-17T07:57:46.624896",
        "meta_mean_motion": 15.33021868,
        "meta_eccentricity": 0.00012634,
        "meta_inclination": 97.4278,
        "meta_ra_of_asc_node": 121.3518,
        "meta_arg_of_pericenter": 326.0348,
        "meta_mean_anomaly": 34.0813,
        "meta_ephemeris_type": 0,
        "meta_classification_type": "U",
        "meta_norad_cat_id": 42990,
        "meta_element_set_no": 999,
        "meta_rev_at_epoch": 45441,
        "meta_bstar": 0.00030707047,
        "meta_mean_motion_dot": 9.718e-05,
        "meta_mean_motion_ddot": 0,
        "tle_line1": "1 42990U 17068D   25351.33178964  .00009718  00000+0  30707-3 0  9997",
        "tle_line2": "2 42990  97.4278 121.3518 0001263 326.0348  34.0813 15.33021868454416"
      },
      "geometry": {
        "type": "Point",
        "coordinates": [
          121.80562090429838,
          1.547749891632126
        ]
      }
    },
    {
      "type": "Feature",
      "properties": {
        "norad_id": 42991,
        "name": "SKYSAT-C7",
        "group": "resource",
        "lat": -25.75559574473446,
        "lon": -60.56468005501647,
        "alt_km": 479.18806477342514,
        "timestamp": "2025-12-17T23:38:06.520675+00:00",
        "meta_object_name": "SKYSAT-C7",
        "meta_object_id": "2017-068E",
        "meta_epoch": "2025-12-17T08:38:07.633248",
        "meta_mean_motion": 15.32424301,
        "meta_eccentricity": 0.00073721,
        "meta_inclination": 97.4285,
        "meta_ra_of_asc_node": 122.4173,
        "meta_arg_of_pericenter": 42.5668,
        "meta_mean_anomaly": 317.6144,
        "meta_ephemeris_type": 0,
        "meta_classification_type": "U",
        "meta_norad_cat_id": 42991,
        "meta_element_set_no": 999,
        "meta_rev_at_epoch": 45448,
        "meta_bstar": 0.00029688975,
        "meta_mean_motion_dot": 9.225e-05,
        "meta_mean_motion_ddot": 0,
        "tle_line1": "1 42991U 17068E   25351.35981057  .00009225  00000+0  29689-3 0  9995",
        "tle_line2": "2 42991  97.4285 122.4173 0007372  42.5668 317.6144 15.32424301454488"
      },
      "geometry": {
        "type": "Point",
        "coordinates": [
          -60.56468005501647,
          -25.75559574473446
        ]
      }
    },
    {
      "type": "Feature",
      "properties": {
        "norad_id": 42992,
        "name": "SKYSAT-C6",
        "group": "resource",
        "lat": -52.53303480945027,
        "lon": 133.2851107977692,
        "alt_km": 479.8579534190094,
        "timestamp": "2025-12-17T23:38:06.520685+00:00",
        "meta_object_name": "SKYSAT-C6",
        "meta_object_id": "2017-068F",
        "meta_epoch": "2025-12-17T08:11:12.621984",
        "meta_mean_motion": 15.3158374,
        "meta_eccentricity": 0.00050921,
        "meta_inclination": 97.4319,
        "meta_ra_of_asc_node": 122.8333,
        "meta_arg_of_pericenter": 69.9436,
        "meta_mean_anomaly": 290.2353,
        "meta_ephemeris_type": 0,
        "meta_classification_type": "U",
        "meta_norad_cat_id": 42992,
        "meta_element_set_no": 999,
        "meta_rev_at_epoch": 45446,
        "meta_bstar": 0.00029339783,
        "meta_mean_motion_dot": 8.874e-05,
        "meta_mean_motion_ddot": 0,
        "tle_line1": "1 42992U 17068F   25351.34111831  .00008874  00000+0  29340-3 0  9993",
        "tle_line2": "2 42992  97.4319 122.8333 0005092  69.9436 290.2353 15.31583740454460"
      },
      "geometry": {
        "type": "Point",
        "coordinates": [
          133.2851107977692,
          -52.53303480945027
        ]
      }
    },
    {
      "type": "Feature",
      "properties": {
        "norad_id": 43111,
        "name": "CARTOSAT-2F",
        "group": "resource",
        "lat": -2.694597780355278,
        "lon": -130.81391729811776,
        "alt_km": 510.6403586640927,
        "timestamp": "2025-12-17T23:38:06.520695+00:00",
        "meta_object_name": "CARTOSAT-2F",
        "meta_object_id": "2018-004A",
        "meta_epoch": "2025-12-17T14:55:50.861280",
        "meta_mean_motion": 15.19326984,
        "meta_eccentricity": 0.00013336,
        "meta_inclination": 97.4319,
        "meta_ra_of_asc_node": 49.1812,
        "meta_arg_of_pericenter": 139.4118,
        "meta_mean_anomaly": 220.7216,
        "meta_ephemeris_type": 0,
        "meta_classification_type": "U",
        "meta_norad_cat_id": 43111,
        "meta_element_set_no": 999,
        "meta_rev_at_epoch": 43976,
        "meta_bstar": 0.00022574921,
        "meta_mean_motion_dot": 4.701e-05,
        "meta_mean_motion_ddot": 0,
        "tle_line1": "1 43111U 18004A   25351.62211645  .00004701  00000+0  22575-3 0  9991",
        "tle_line2": "2 43111  97.4319  49.1812 0001333 139.4118 220.7216 15.19326984439764"
      },
      "geometry": {
        "type": "Point",
        "coordinates": [
          -130.81391729811776,
          -2.694597780355278
        ]
      }
    },
    {
      "type": "Feature",
      "properties": {
        "norad_id": 43259,
        "name": "GAOFEN-1 02",
        "group": "resource",
        "lat": -40.35208237039472,
        "lon": -137.1566804382713,
        "alt_km": 645.8528442222405,
        "timestamp": "2025-12-17T23:38:06.520705+00:00",
        "meta_object_name": "GAOFEN-1 02",
        "meta_object_id": "2018-031A",
        "meta_epoch": "2025-12-17T16:07:56.025408",
        "meta_mean_motion": 14.76426695,
        "meta_eccentricity": 0.00020386,
        "meta_inclination": 98.0807,
        "meta_ra_of_asc_node": 49.4636,
        "meta_arg_of_pericenter": 198.5219,
        "meta_mean_anomaly": 161.5916,
        "meta_ephemeris_type": 0,
        "meta_classification_type": "U",
        "meta_norad_cat_id": 43259,
        "meta_element_set_no": 999,
        "meta_rev_at_epoch": 41591,
        "meta_bstar": 0.0001443483,
        "meta_mean_motion_dot": 9.52e-06,
        "meta_mean_motion_ddot": 0,
        "tle_line1": "1 43259U 18031A   25351.67217622  .00000952  00000+0  14435-3 0  9990",
        "tle_line2": "2 43259  98.0807  49.4636 0002038 198.5219 161.5916 14.76426695415916"
      },
      "geometry": {
        "type": "Point",
        "coordinates": [
          -137.1566804382713,
          -40.35208237039472
        ]
      }
    },
    {
      "type": "Feature",
      "properties": {
        "norad_id": 43260,
        "name": "GAOFEN-1 03",
        "group": "resource",
        "lat": -23.53612681982178,
        "lon": 53.19952635272153,
        "alt_km": 645.1127412224705,
        "timestamp": "2025-12-17T23:38:06.520715+00:00",
        "meta_object_name": "GAOFEN-1 03",
        "meta_object_id": "2018-031B",
        "meta_epoch": "2025-12-17T15:36:36.313920",
        "meta_mean_motion": 14.76447044,
        "meta_eccentricity": 0.00017638,
        "meta_inclination": 98.0793,
        "meta_ra_of_asc_node": 49.3179,
        "meta_arg_of_pericenter": 297.3125,
        "meta_mean_anomaly": 62.7905,
        "meta_ephemeris_type": 0,
        "meta_classification_type": "U",
        "meta_norad_cat_id": 43260,
        "meta_element_set_no": 999,
        "meta_rev_at_epoch": 41590,
        "meta_bstar": 0.00011949322,
        "meta_mean_motion_dot": 7.79e-06,
        "meta_mean_motion_ddot": 0,
        "tle_line1": "1 43260U 18031B   25351.65042030  .00000779  00000+0  11949-3 0  9993",
        "tle_line2": "2 43260  98.0793  49.3179 0001763 297.3125  62.7905 14.76447044415901"
      },
      "geometry": {
        "type": "Point",
        "coordinates": [
          53.19952635272153,
          -23.53612681982178
        ]
      }
    }
  ]
}